SOYUZ-MS 28             
1 66664U 25275A   25363.50072365  .00018472  00000+0  33150-3 0  9992
2 66664  51.6323  59.4638 0003289 318.5670  41.5069 15.49944447  1284
1998-067XS              
1 66906U 98067XS  25363.48136637  .00038202  00000+0  63864-3 0  9998
2 66906  51.6326  59.3347 0002617 291.4544  68.6166 15.51524554  4215
1998-067XT              
1 66907U 98067XT  25363.46279640  .00093030  00000+0  14194-2 0  9990
2 66907  51.6312  59.2117 0003831 329.8125  30.2644 15.53668810  4217
1998-067XU              
1 66908U 98067XU  25363.46161730  .00081056  00000+0  12402-2 0  9996
2 66908  51.6310  59.2030 0003915 326.0773  33.9966 15.53652804  4214
SILVERSAT               
1 66909U 98067XV  25363.52341790  .00105899  00000+0  15885-2 0  9990
2 66909  51.6308  58.8658 0003908 333.7603  26.3189 15.54074653  4227
1998-067XW              
1 66910U 98067XW  25363.45777360  .00094181  00000+0  14242-2 0  9997
2 66910  51.6309  59.1775 0003543 303.1215  56.9435 15.53909102  4216
1998-067XX              
1 66911U 98067XX  25363.38802422  .00113700  00000+0  16734-2 0  9995
2 66911  51.6308  59.4626 0003279 314.1588  45.9133 15.54563017  4197
1998-067XY              
1 66912U 98067XY  25363.21210295  .00069692  00000+0  11008-2 0  9998
2 66912  51.6316  60.5380 0003970 318.2962  41.7725 15.52839707  4164
